STARLINK-4695           
1 53718U 22107U   26068.71615270  .00001574  00000+0  11697-3 0  9990
2 53718  53.2168 254.2692 0001357  70.9322 289.1817 15.08831190194400
KUIPER-00148            
1 65769U 25217H   26068.27522507  .00015783  00000+0  98730-3 0  9995
2 65769  51.8794  26.5769 0008108 351.8096   8.2745 15.09536529 25078
