[{"OBJECT_NAME":"STARLINK-4695","OBJECT_ID":"2022-107U","EPOCH":"2026-03-09T17:11:15.593280","MEAN_MOTION":15.0883119,"ECCENTRICITY":0.00013568,"INCLINATION":53.2168,"RA_OF_ASC_NODE":254.2692,"ARG_OF_PERICENTER":70.9322,"MEAN_ANOMALY":289.1817,"EPHEMERIS_TYPE":0,"CLASSIFICATION_TYPE":"U","NORAD_CAT_ID":53718,"ELEMENT_SET_NO":999,"REV_AT_EPOCH":19440,"BSTAR":0.00011696627,"MEAN_MOTION_DOT":1.574e-5,"MEAN_MOTION_DDOT":0},{"OBJECT_NAME":"KUIPER-00148","OBJECT_ID":"2025-217H","EPOCH":"2026-03-09T06:36:19.446048","MEAN_MOTION":15.09536529,"ECCENTRICITY":0.00081087,"INCLINATION":51.8794,"RA_OF_ASC_NODE":26.5769,"ARG_OF_PERICENTER":351.8096,"MEAN_ANOMALY":8.2745,"EPHEMERIS_TYPE":0,"CLASSIFICATION_TYPE":"U","NORAD_CAT_ID":65769,"ELEMENT_SET_NO":999,"REV_AT_EPOCH":2507,"BSTAR":0.00098730243,"MEAN_MOTION_DOT":0.00015783,"MEAN_MOTION_DDOT":0}]
